{
  "links" : {
    "next" : "https://api.nasa.gov/neo/rest/v1/feed?start_date=1997-07-23&end_date=1997-07-23&detailed=true&api_key=t0TVs3DtDT2H8Oy2Zy8m2eVrNsAVKAexjcZXUckd",
    "prev" : "https://api.nasa.gov/neo/rest/v1/feed?start_date=1997-07-21&end_date=1997-07-21&detailed=true&api_key=t0TVs3DtDT2H8Oy2Zy8m2eVrNsAVKAexjcZXUckd",
    "self" : "https://api.nasa.gov/neo/rest/v1/feed?start_date=1997-07-22&end_date=1997-07-22&detailed=true&api_key=t0TVs3DtDT2H8Oy2Zy8m2eVrNsAVKAexjcZXUckd"
  },
  "element_count" : 7,
  "near_earth_objects" : {
    "1997-07-22" : [ {
      "links" : {
        "self" : "https://api.nasa.gov/neo/rest/v1/neo/3025767?api_key=t0TVs3DtDT2H8Oy2Zy8m2eVrNsAVKAexjcZXUckd"
      },
      "neo_reference_id" : "3025767",
      "name" : "(2000 AF205)",
      "nasa_jpl_url" : "http://ssd.jpl.nasa.gov/sbdb.cgi?sstr=3025767",
      "absolute_magnitude_h" : 21.7,
      "estimated_diameter" : {
        "kilometers" : {
          "estimated_diameter_min" : 0.1214940408,
          "estimated_diameter_max" : 0.2716689341
        },
        "meters" : {
          "estimated_diameter_min" : 121.4940407996,
          "estimated_diameter_max" : 271.6689340891
        },
        "miles" : {
          "estimated_diameter_min" : 0.0754928736,
          "estimated_diameter_max" : 0.1688071972
        },
        "feet" : {
          "estimated_diameter_min" : 398.6025088171,
          "estimated_diameter_max" : 891.3023057169
        }
      },
      "is_potentially_hazardous_asteroid" : true,
      "close_approach_data" : [ {
        "close_approach_date" : "1997-07-22",
        "epoch_date_close_approach" : 869554800000,
        "relative_velocity" : {
          "kilometers_per_second" : "7.280170356",
          "kilometers_per_hour" : "26208.6132817005",
          "miles_per_hour" : "16285.0130693989"
        },
        "miss_distance" : {
          "astronomical" : "0.2210612618",
          "lunar" : "85.9928283691",
          "kilometers" : "33070294",
          "miles" : "20548928"
        },
        "orbiting_body" : "Earth"
      } ],
      "orbital_data" : {
        "orbit_id" : "32",
        "orbit_determination_date" : "2017-05-05 06:17:53",
        "orbit_uncertainty" : "1",
        "minimum_orbit_intersection" : ".0181098",
        "jupiter_tisserand_invariant" : "5.889",
        "epoch_osculation" : "2457800.5",
        "eccentricity" : ".2768393823938556",
        "semi_major_axis" : "1.033858498481567",
        "inclination" : "2.409314764131289",
        "ascending_node_longitude" : "220.0946417577138",
        "orbital_period" : "383.9636221543913",
        "perihelion_distance" : ".7476457502792913",
        "perihelion_argument" : "127.3831632099929",
        "aphelion_distance" : "1.320071246683843",
        "perihelion_time" : "2457982.817862024249",
        "mean_anomaly" : "189.0608106037239",
        "mean_motion" : ".9375888215140454",
        "equinox" : "J2000"
      }
    }, {
      "links" : {
        "self" : "https://api.nasa.gov/neo/rest/v1/neo/3483296?api_key=t0TVs3DtDT2H8Oy2Zy8m2eVrNsAVKAexjcZXUckd"
      },
      "neo_reference_id" : "3483296",
      "name" : "(2009 XF2)",
      "nasa_jpl_url" : "http://ssd.jpl.nasa.gov/sbdb.cgi?sstr=3483296",
      "absolute_magnitude_h" : 19.9,
      "estimated_diameter" : {
        "kilometers" : {
          "estimated_diameter_min" : 0.2783267681,
          "estimated_diameter_max" : 0.6223575734
        },
        "meters" : {
          "estimated_diameter_min" : 278.3267680719,
          "estimated_diameter_max" : 622.3575733667
        },
        "miles" : {
          "estimated_diameter_min" : 0.1729441822,
          "estimated_diameter_max" : 0.3867149477
        },
        "feet" : {
          "estimated_diameter_min" : 913.1455937611,
          "estimated_diameter_max" : 2041.8556210042
        }
      },
      "is_potentially_hazardous_asteroid" : false,
      "close_approach_data" : [ {
        "close_approach_date" : "1997-07-22",
        "epoch_date_close_approach" : 869554800000,
        "relative_velocity" : {
          "kilometers_per_second" : "6.9150166667",
          "kilometers_per_hour" : "24894.0599999584",
          "miles_per_hour" : "15468.2007816408"
        },
        "miss_distance" : {
          "astronomical" : "0.4455647312",
          "lunar" : "173.3246765137",
          "kilometers" : "66655532",
          "miles" : "41417828"
        },
        "orbiting_body" : "Earth"
      } ],
      "orbital_data" : {
        "orbit_id" : "35",
        "orbit_determination_date" : "2016-08-02 06:16:43",
        "orbit_uncertainty" : "0",
        "minimum_orbit_intersection" : ".0643258",
        "jupiter_tisserand_invariant" : "4.982",
        "epoch_osculation" : "2457600.5",
        "eccentricity" : ".2468998184558027",
        "semi_major_axis" : "1.28557742750609",
        "inclination" : "14.01266604706248",
        "ascending_node_longitude" : "88.50663490758316",
        "orbital_period" : "532.4094856066256",
        "perihelion_distance" : ".9681685940439588",
        "perihelion_argument" : "113.3646125695602",
        "aphelion_distance" : "1.602986260968222",
        "perihelion_time" : "2457451.362863599336",
        "mean_anomaly" : "100.8422474724799",
        "mean_motion" : ".6761712736763457",
        "equinox" : "J2000"
      }
    }, {
      "links" : {
        "self" : "https://api.nasa.gov/neo/rest/v1/neo/3617713?api_key=t0TVs3DtDT2H8Oy2Zy8m2eVrNsAVKAexjcZXUckd"
      },
      "neo_reference_id" : "3617713",
      "name" : "(2012 VS76)",
      "nasa_jpl_url" : "http://ssd.jpl.nasa.gov/sbdb.cgi?sstr=3617713",
      "absolute_magnitude_h" : 26.9,
      "estimated_diameter" : {
        "kilometers" : {
          "estimated_diameter_min" : 0.0110803882,
          "estimated_diameter_max" : 0.0247765013
        },
        "meters" : {
          "estimated_diameter_min" : 11.0803882126,
          "estimated_diameter_max" : 24.7765012606
        },
        "miles" : {
          "estimated_diameter_min" : 0.0068850319,
          "estimated_diameter_max" : 0.0153953994
        },
        "feet" : {
          "estimated_diameter_min" : 36.3529808636,
          "estimated_diameter_max" : 81.2877363957
        }
      },
      "is_potentially_hazardous_asteroid" : false,
      "close_approach_data" : [ {
        "close_approach_date" : "1997-07-22",
        "epoch_date_close_approach" : 869554800000,
        "relative_velocity" : {
          "kilometers_per_second" : "23.6043785515",
          "kilometers_per_hour" : "84975.7627854133",
          "miles_per_hour" : "52800.6343818586"
        },
        "miss_distance" : {
          "astronomical" : "0.4010310902",
          "lunar" : "156.001083374",
          "kilometers" : "59993396",
          "miles" : "37278168"
        },
        "orbiting_body" : "Earth"
      } ],
      "orbital_data" : {
        "orbit_id" : "7",
        "orbit_determination_date" : "2017-04-06 08:48:00",
        "orbit_uncertainty" : "6",
        "minimum_orbit_intersection" : ".00190346",
        "jupiter_tisserand_invariant" : "6.055",
        "epoch_osculation" : "2458000.5",
        "eccentricity" : ".3862441671716078",
        "semi_major_axis" : ".991089878325892",
        "inclination" : ".8057978515425388",
        "ascending_node_longitude" : "242.3344398777288",
        "orbital_period" : "360.3860636105049",
        "perihelion_distance" : ".6082871936796979",
        "perihelion_argument" : "284.4250658581834",
        "aphelion_distance" : "1.373892562972086",
        "perihelion_time" : "2458118.235928402428",
        "mean_anomaly" : "242.3901962238961",
        "mean_motion" : ".9989287498893903",
        "equinox" : "J2000"
      }
    } ]
  }
}